start=new Date('2022-05-25T00:00:00.000Z').valueOf();
sats=[{"SEMIMAJOR_AXIS":"6917.954","MEAN_ANOMALY":"88.2205","CENTER_NAME":"EARTH","TIME_SYSTEM":"UTC","BSTAR":"0.00105840000000","COUNTRY_CODE":"US","SITE":"AFWTR","MEAN_MOTION_DOT":"0.00016586","ARG_OF_PERICENTER":"33.9865","FILE":"3462783","REF_FRAME":"TEME","REV_AT_EPOCH":"130","MEAN_MOTION_DDOT":"0.0000000000000","ECCENTRICITY":"0.00022150","PERIAPSIS":"538.287","EPOCH":"2022-05-24T22:00:00.999936","OBJECT_ID":"2021-125B","EPHEMERIS_TYPE":"0","GP_ID":"204456735","RA_OF_ASC_NODE":"355.6236","MEAN_MOTION":"15.08815759","TLE_LINE1":"1 50157U 21125B   22144.91667824  .00016586  00000-0  10584-2 0  9991","LAUNCH_DATE":"2021-12-18","OBJECT_TYPE":"PAYLOAD","TLE_LINE2":"2 50157  53.2154 355.6236 0002215  33.9865  88.2205 15.08815759  1302","ELEMENT_SET_NO":"999","OBJECT_NAME":"STARLINK-3313","INCLINATION":"53.2154","DECAY_DATE":null,"PERIOD":"95.439","MEAN_ELEMENT_THEORY":"SGP4","RCS_SIZE":"LARGE","CLASSIFICATION_TYPE":"U","APOAPSIS":"541.352","NORAD_CAT_ID":"50157"},{"TLE_LINE2":"2 50158  53.2174 355.6237 0002302  30.9478 151.2789 15.08811441  1302","LAUNCH_DATE":"2021-12-18","OBJECT_TYPE":"PAYLOAD","TLE_LINE1":"1 50158U 21125C   22144.91667824  .00019698  00000-0  12532-2 0  9994","MEAN_MOTION":"15.08811441","GP_ID":"204456979","RA_OF_ASC_NODE":"355.6237","CLASSIFICATION_TYPE":"U","NORAD_CAT_ID":"50158","APOAPSIS":"541.425","OBJECT_NAME":"STARLINK-3309","ELEMENT_SET_NO":"999","MEAN_ELEMENT_THEORY":"SGP4","PERIOD":"95.439","RCS_SIZE":"LARGE","DECAY_DATE":null,"INCLINATION":"53.2174","SITE":"AFWTR","COUNTRY_CODE":"US","MEAN_ANOMALY":"151.2789","CENTER_NAME":"EARTH","SEMIMAJOR_AXIS":"6917.968","BSTAR":"0.00125320000000","TIME_SYSTEM":"UTC","MEAN_MOTION_DDOT":"0.0000000000000","ECCENTRICITY":"0.00023020","REV_AT_EPOCH":"130","EPOCH":"2022-05-24T22:00:00.999936","OBJECT_ID":"2021-125C","EPHEMERIS_TYPE":"0","PERIAPSIS":"538.240","FILE":"3462783","ARG_OF_PERICENTER":"30.9478","MEAN_MOTION_DOT":"0.00019698","REF_FRAME":"TEME"},{"SITE":"AFWTR","COUNTRY_CODE":"US","CENTER_NAME":"EARTH","MEAN_ANOMALY":"175.0418","SEMIMAJOR_AXIS":"6917.957","BSTAR":"0.00016960000000","TIME_SYSTEM":"UTC","ECCENTRICITY":"0.00022350","MEAN_MOTION_DDOT":"0.0000000000000","REV_AT_EPOCH":"130","EPHEMERIS_TYPE":"0","OBJECT_ID":"2021-125D","EPOCH":"2022-05-24T22:00:00.999936","PERIAPSIS":"538.276","FILE":"3462783","MEAN_MOTION_DOT":"0.00002410","ARG_OF_PERICENTER":"27.1589","REF_FRAME":"TEME","TLE_LINE2":"2 50159  53.2166 355.6225 0002235  27.1589 175.0418 15.08814774  1302","LAUNCH_DATE":"2021-12-18","OBJECT_TYPE":"PAYLOAD","MEAN_MOTION":"15.08814774","TLE_LINE1":"1 50159U 21125D   22144.91667824  .00002410  00000-0  16960-3 0  9999","RA_OF_ASC_NODE":"355.6225","GP_ID":"204456233","CLASSIFICATION_TYPE":"U","NORAD_CAT_ID":"50159","APOAPSIS":"541.369","OBJECT_NAME":"STARLINK-3297","ELEMENT_SET_NO":"999","RCS_SIZE":"LARGE","MEAN_ELEMENT_THEORY":"SGP4","PERIOD":"95.439","DECAY_DATE":null,"INCLINATION":"53.2166"},{"SEMIMAJOR_AXIS":"6917.939","CENTER_NAME":"EARTH","MEAN_ANOMALY":"118.0115","TIME_SYSTEM":"UTC","BSTAR":"-0.00000459930000","COUNTRY_CODE":"US","SITE":"AFWTR","ARG_OF_PERICENTER":"44.1987","MEAN_MOTION_DOT":"-0.00000361","FILE":"3462783","REF_FRAME":"TEME","REV_AT_EPOCH":"130","ECCENTRICITY":"0.00019500","MEAN_MOTION_DDOT":"0.0000000000000","PERIAPSIS":"538.455","EPHEMERIS_TYPE":"0","OBJECT_ID":"2021-125E","EPOCH":"2022-05-24T22:00:00.999936","RA_OF_ASC_NODE":"355.6230","GP_ID":"204456483","MEAN_MOTION":"15.08820917","TLE_LINE1":"1 50160U 21125E   22144.91667824 -.00000361  00000-0 -45993-5 0  9996","LAUNCH_DATE":"2021-12-18","OBJECT_TYPE":"PAYLOAD","TLE_LINE2":"2 50160  53.2179 355.6230 0001950  44.1987 118.0115 15.08820917  1305","ELEMENT_SET_NO":"999","OBJECT_NAME":"STARLINK-3288","DECAY_DATE":null,"INCLINATION":"53.2179","RCS_SIZE":"LARGE","PERIOD":"95.439","MEAN_ELEMENT_THEORY":"SGP4","CLASSIFICATION_TYPE":"U","APOAPSIS":"541.153","NORAD_CAT_ID":"50160"},{"DECAY_DATE":null,"INCLINATION":"53.2155","PERIOD":"95.439","MEAN_ELEMENT_THEORY":"SGP4","RCS_SIZE":"LARGE","ELEMENT_SET_NO":"999","OBJECT_NAME":"STARLINK-3304","APOAPSIS":"541.187","NORAD_CAT_ID":"50161","CLASSIFICATION_TYPE":"U","GP_ID":"204457235","RA_OF_ASC_NODE":"355.6244","MEAN_MOTION":"15.08814365","TLE_LINE1":"1 50161U 21125F   22144.91667824  .00014048  00000-0  89957-3 0  9998","LAUNCH_DATE":"2021-12-18","OBJECT_TYPE":"PAYLOAD","TLE_LINE2":"2 50161  53.2155 355.6244 0001971  35.0708 107.1661 15.08814365  1303","REF_FRAME":"TEME","ARG_OF_PERICENTER":"35.0708","MEAN_MOTION_DOT":"0.00014048","FILE":"3462783","PERIAPSIS":"538.460","EPOCH":"2022-05-24T22:00:00.999936","OBJECT_ID":"2021-125F","EPHEMERIS_TYPE":"0","REV_AT_EPOCH":"130","MEAN_MOTION_DDOT":"0.0000000000000","ECCENTRICITY":"0.00019710","TIME_SYSTEM":"UTC","BSTAR":"0.00089957000000","SEMIMAJOR_AXIS":"6917.959","MEAN_ANOMALY":"107.1661","CENTER_NAME":"EARTH","COUNTRY_CODE":"US","SITE":"AFWTR"},{"OBJECT_TYPE":"PAYLOAD","LAUNCH_DATE":"2021-12-18","TLE_LINE2":"2 50162  53.2061 299.0820 0001195  48.2433  66.5425 15.76527753  1303","GP_ID":"204457479","RA_OF_ASC_NODE":"299.0820","MEAN_MOTION":"15.76527753","TLE_LINE1":"1 50162U 21125G   22144.91667824  .00054396  00000-0  33721-3 0  9997","CLASSIFICATION_TYPE":"U","APOAPSIS":"341.092","NORAD_CAT_ID":"50162","ELEMENT_SET_NO":"999","OBJECT_NAME":"STARLINK-3303","INCLINATION":"53.2061","DECAY_DATE":null,"PERIOD":"91.340","MEAN_ELEMENT_THEORY":"SGP4","RCS_SIZE":"LARGE","COUNTRY_CODE":"US","SITE":"AFWTR","SEMIMAJOR_AXIS":"6718.424","MEAN_ANOMALY":"66.5425","CENTER_NAME":"EARTH","TIME_SYSTEM":"UTC","BSTAR":"0.00033721000000","REV_AT_EPOCH":"130","MEAN_MOTION_DDOT":"0.0000000000000","ECCENTRICITY":"0.00011950","PERIAPSIS":"339.486","EPOCH":"2022-05-24T22:00:00.999936","OBJECT_ID":"2021-125G","EPHEMERIS_TYPE":"0","ARG_OF_PERICENTER":"48.2433","MEAN_MOTION_DOT":"0.00054396","FILE":"3462783","REF_FRAME":"TEME"},{"OBJECT_ID":"2021-125H","EPOCH":"2022-05-24T22:00:00.999936","EPHEMERIS_TYPE":"0","PERIAPSIS":"538.543","MEAN_MOTION_DDOT":"0.0000000000000","ECCENTRICITY":"0.00018520","REV_AT_EPOCH":"130","REF_FRAME":"TEME","FILE":"3462783","MEAN_MOTION_DOT":"0.00029953","ARG_OF_PERICENTER":"43.6977","SITE":"AFWTR","COUNTRY_CODE":"US","BSTAR":"0.00189340000000","TIME_SYSTEM":"UTC","MEAN_ANOMALY":"183.2813","CENTER_NAME":"EARTH","SEMIMAJOR_AXIS":"6917.960","NORAD_CAT_ID":"50163","APOAPSIS":"541.106","CLASSIFICATION_TYPE":"U","PERIOD":"95.439","MEAN_ELEMENT_THEORY":"SGP4","RCS_SIZE":"LARGE","DECAY_DATE":null,"INCLINATION":"53.2137","OBJECT_NAME":"STARLINK-3306","ELEMENT_SET_NO":"999","TLE_LINE2":"2 50163  53.2137 335.6054 0001852  43.6977 183.2813 15.08814067  1306","OBJECT_TYPE":"PAYLOAD","LAUNCH_DATE":"2021-12-18","MEAN_MOTION":"15.08814067","TLE_LINE1":"1 50163U 21125H   22144.91667824  .00029953  00000-0  18934-2 0  9997","GP_ID":"204455734","RA_OF_ASC_NODE":"335.6054"},{"TIME_SYSTEM":"UTC","BSTAR":"0.00077389000000","SEMIMAJOR_AXIS":"6694.212","MEAN_ANOMALY":"245.5166","CENTER_NAME":"EARTH","COUNTRY_CODE":"US","SITE":"AFWTR","REF_FRAME":"TEME","MEAN_MOTION_DOT":"0.00190559","ARG_OF_PERICENTER":"344.4274","FILE":"3462783","PERIAPSIS":"308.100","EPOCH":"2022-05-24T22:00:00.999936","OBJECT_ID":"2021-125J","EPHEMERIS_TYPE":"0","REV_AT_EPOCH":"130","MEAN_MOTION_DDOT":"0.0000000000000","ECCENTRICITY":"0.00119160","GP_ID":"204455984","RA_OF_ASC_NODE":"304.0129","TLE_LINE1":"1 50164U 21125J   22144.91667824  .00190559  00000-0  77389-3 0  9999","MEAN_MOTION":"15.85088847","LAUNCH_DATE":"2021-12-18","OBJECT_TYPE":"PAYLOAD","TLE_LINE2":"2 50164  53.2063 304.0129 0011916 344.4274 245.5166 15.85088847  1309","DECAY_DATE":null,"INCLINATION":"53.2063","PERIOD":"90.847","MEAN_ELEMENT_THEORY":"SGP4","RCS_SIZE":"LARGE","ELEMENT_SET_NO":"999","OBJECT_NAME":"STARLINK-3307","APOAPSIS":"324.053","NORAD_CAT_ID":"50164","CLASSIFICATION_TYPE":"U"},{"ELEMENT_SET_NO":"999","OBJECT_NAME":"STARLINK-3298","DECAY_DATE":null,"INCLINATION":"53.2177","PERIOD":"95.439","MEAN_ELEMENT_THEORY":"SGP4","RCS_SIZE":"LARGE","CLASSIFICATION_TYPE":"U","APOAPSIS":"541.317","NORAD_CAT_ID":"50165","GP_ID":"204456736","RA_OF_ASC_NODE":"355.6195","TLE_LINE1":"1 50165U 21125K   22144.91667824  .00015904  00000-0  10158-2 0  9990","MEAN_MOTION":"15.08815012","OBJECT_TYPE":"PAYLOAD","LAUNCH_DATE":"2021-12-18","TLE_LINE2":"2 50165  53.2177 355.6195 0002161  39.8479 182.3694 15.08815012  1306","ARG_OF_PERICENTER":"39.8479","MEAN_MOTION_DOT":"0.00015904","FILE":"3462783","REF_FRAME":"TEME","REV_AT_EPOCH":"130","MEAN_MOTION_DDOT":"0.0000000000000","ECCENTRICITY":"0.00021610","PERIAPSIS":"538.327","OBJECT_ID":"2021-125K","EPOCH":"2022-05-24T22:00:00.999936","EPHEMERIS_TYPE":"0","SEMIMAJOR_AXIS":"6917.957","MEAN_ANOMALY":"182.3694","CENTER_NAME":"EARTH","TIME_SYSTEM":"UTC","BSTAR":"0.00101580000000","COUNTRY_CODE":"US","SITE":"AFWTR"},{"ARG_OF_PERICENTER":"43.3454","MEAN_MOTION_DOT":"-0.00005119","FILE":"3462783","REF_FRAME":"TEME","REV_AT_EPOCH":"130","MEAN_MOTION_DDOT":"0.0000000000000","ECCENTRICITY":"0.00017680","PERIAPSIS":"538.571","EPOCH":"2022-05-24T22:00:00.999936","OBJECT_ID":"2021-125L","EPHEMERIS_TYPE":"0","SEMIMAJOR_AXIS":"6917.929","MEAN_ANOMALY":"53.8439","CENTER_NAME":"EARTH","TIME_SYSTEM":"UTC","BSTAR":"-0.00030391000000","COUNTRY_CODE":"US","SITE":"AFWTR","ELEMENT_SET_NO":"999","OBJECT_NAME":"STARLINK-3305","DECAY_DATE":null,"INCLINATION":"53.2172","PERIOD":"95.439","MEAN_ELEMENT_THEORY":"SGP4","RCS_SIZE":"LARGE","CLASSIFICATION_TYPE":"U","APOAPSIS":"541.017","NORAD_CAT_ID":"50166","GP_ID":"204456980","RA_OF_ASC_NODE":"345.6052","TLE_LINE1":"1 50166U 21125L   22144.91667824 -.00005119  00000-0 -30391-3 0  9992","MEAN_MOTION":"15.08824112","LAUNCH_DATE":"2021-12-18","OBJECT_TYPE":"PAYLOAD","TLE_LINE2":"2 50166  53.2172 345.6052 0001768  43.3454  53.8439 15.08824112  1308"}];
